NORAD_CAT_ID,OBJECT_NAME,OBJECT_TYPE,EPOCH,MEAN_MOTION,ECCENTRICITY,INCLINATION,RA_OF_ASC_NODE,ARG_OF_PERICENTER,MEAN_ANOMALY,BSTAR,MEAN_MOTION_DOT,MEAN_MOTION_DDOT,TLE_LINE0,TLE_LINE1,TLE_LINE2,SEMIMAJOR_AXIS,PERIOD,APOGEE,PERIGEE,DECAYED
54095.0,STARLINK-5193,PAYLOAD,2023-09-18 04:59:21,15.08848367,0.0001254,53.2165,69.6768,78.0614,282.0519,0.00018849,2.714e-05,0.0,0 STARLINK-5193,1 54095U 22136AW  23261.20788624  .00002714  00000-0  18849-3 0  9995,2 54095  53.2165  69.6768 0001254  78.0614 282.0519 15.08848367 51066,6917.855,95.437,540.587,538.852,0.0
54095.0,STARLINK-5193,PAYLOAD,2023-09-18 11:20:54,15.08840169,0.0001374,53.2174,68.4889,80.0746,280.0401,2.508e-05,1.11e-06,0.0,0 STARLINK-5193,1 54095U 22136AW  23261.47284961  .00000111  00000-0  25080-4 0  9994,2 54095  53.2174  68.4889 0001374  80.0746 280.0401 15.08840169 50631,6917.88,95.438,540.695,538.794,0.0
54095.0,STARLINK-5193,PAYLOAD,2023-09-18 17:42:26,15.08842545,0.0001415,53.2183,67.2988,85.6919,274.4235,6.2453e-05,7.06e-06,0.0,0 STARLINK-5193,1 54095U 22136AW  23261.73780891  .00000706  00000-0  62453-4 0  9991,2 54095  53.2183  67.2988 0001415  85.6919 274.4235 15.08842545 51146,6917.873,95.437,540.716,538.759,0.0
54095.0,STARLINK-5193,PAYLOAD,2023-09-18 19:17:49,15.08846226,0.0001439,53.2183,67.0016,84.7825,275.3331,8.4066e-05,1.05e-05,0.0,0 STARLINK-5193,1 54095U 22136AW  23261.80404709  .00001050  00000-0  84066-4 0  9997,2 54095  53.2183  67.0016 0001439  84.7825 275.3331 15.08846226 50683,6917.861,95.437,540.722,538.731,0.0
54095.0,STARLINK-5193,PAYLOAD,2023-09-20 11:02:29,15.08823655,8.69e-05,53.2185,59.5677,78.8021,281.3068,-0.00010495,-1.957e-05,0.0,0 STARLINK-5193,1 54095U 22136AW  23263.46005872 -.00001957  00000-0 -10495-3 0  9991,2 54095  53.2185  59.5677 0000869  78.8021 281.3068 15.08823655 51408,6917.93,95.439,540.397,539.194,0.0
54095.0,STARLINK-5193,PAYLOAD,2023-09-20 14:13:15,15.08828961,0.0001357,53.2186,58.9724,99.1519,260.9627,-3.5301e-05,-8.49e-06,0.0,0 STARLINK-5193,1 54095U 22136AW  23263.59253728 -.00000849  00000-0 -35301-4 0  9993,2 54095  53.2186  58.9724 0001357  99.1519 260.9627 15.08828961 50954,6917.914,95.438,540.718,538.84,0.0
54095.0,STARLINK-5193,PAYLOAD,2023-09-20 17:24:01,15.08829938,0.0001349,53.2184,58.3781,96.9133,263.2013,-1.7057e-05,-5.59e-06,0.0,0 STARLINK-5193,1 54095U 22136AW  23263.72501764 -.00000559  00000-0 -17057-4 0  9990,2 54095  53.2184  58.3781 0001349  96.9133 263.2013 15.08829938 50979,6917.911,95.438,540.709,538.843,0.0
54095.0,STARLINK-5193,PAYLOAD,2023-09-21 10:53:15,15.08841774,0.0001219,53.218,55.1055,97.2554,262.8577,8.96e-05,1.138e-05,0.0,0 STARLINK-5193,1 54095U 22136AW  23264.45365453  .00001138  00000-0  89600-4 0  9999,2 54095  53.2180  55.1055 0001219  97.2554 262.8577 15.08841774 51558,6917.875,95.437,540.583,538.897,0.0
54095.0,STARLINK-5193,PAYLOAD,2023-09-21 17:14:48,15.08849904,0.0001242,53.2182,53.9175,101.6532,258.46,0.00032571,4.901e-05,0.0,0 STARLINK-5193,1 54095U 22136AW  23264.71861138  .00004901  00000-0  32571-3 0  9994,2 54095  53.2182  53.9175 0001242 101.6532 258.4600 15.08849904 51125,6917.85,95.437,540.574,538.856,0.0
54095.0,STARLINK-5193,PAYLOAD,2023-09-22 13:54:49,15.08839827,0.000132,53.2191,50.0533,103.1159,256.998,2.9015e-05,1.74e-06,0.0,0 STARLINK-5193,1 54095U 22136AW  23265.57973444  .00000174  00000-0  29015-4 0  9991,2 54095  53.2191  50.0533 0001320 103.1159 256.9980 15.08839827 51251,6917.881,95.438,540.659,538.833,0.0
54095.0,STARLINK-5193,PAYLOAD,2023-09-22 17:05:35,15.0884544,0.0001245,53.2187,49.4576,91.7908,268.3227,0.00027422,4.08e-05,0.0,0 STARLINK-5193,1 54095U 22136AW  23265.71221389  .00004080  00000-0  27422-3 0  9990,2 54095  53.2187  49.4576 0001245  91.7908 268.3227 15.08845440 51748,6917.864,95.437,540.59,538.867,0.0
54095.0,STARLINK-5193,PAYLOAD,2023-09-22 21:51:44,15.08855672,0.000123,53.218,48.5648,91.0157,269.0976,0.00037363,5.666e-05,0.0,0 STARLINK-5193,1 54095U 22136AW  23265.91092850  .00005666  00000-0  37363-3 0  9997,2 54095  53.2180  48.5648 0001230  91.0157 269.0976 15.08855672 51774,6917.832,95.437,540.548,538.847,0.0
54095.0,STARLINK-5193,PAYLOAD,2023-09-23 08:59:26,15.08837592,0.0001036,53.2168,46.4835,94.2855,265.8256,-9.991e-05,-1.877e-05,0.0,0 STARLINK-5193,1 54095U 22136AW  23266.37461248 -.00001877  00000-0 -99910-4 0  9998,2 54095  53.2168  46.4835 0001036  94.2855 265.8256 15.08837592 51843,6917.888,95.438,540.469,539.036,0.0
54095.0,STARLINK-5193,PAYLOAD,2023-09-23 13:45:35,15.08842938,0.0001377,53.2165,45.5915,86.6608,273.4541,6.7812e-05,7.92e-06,0.0,0 STARLINK-5193,1 54095U 22136AW  23266.57333181  .00000792  00000-0  67812-4 0  9993,2 54095  53.2165  45.5915 0001377  86.6608 273.4541 15.08842938 51402,6917.871,95.437,540.689,538.784,0.0
54095.0,STARLINK-5193,PAYLOAD,2023-09-23 16:56:22,15.08845694,0.0001516,53.2174,44.9982,67.7609,292.3544,0.00020538,2.983e-05,0.0,0 STARLINK-5193,1 54095U 22136AW  23266.70581263  .00002983  00000-0  20538-3 0  9991,2 54095  53.2174  44.9982 0001516  67.7609 292.3544 15.08845694 51893,6917.863,95.437,540.777,538.679,0.0
54095.0,STARLINK-5193,PAYLOAD,2023-09-24 08:50:13,15.08843183,0.0001721,53.2169,42.026,59.5188,300.5974,0.00024459,3.607e-05,0.0,0 STARLINK-5193,1 54095U 22136AW  23267.36821554  .00003607  00000-0  24459-3 0  9994,2 54095  53.2169  42.0260 0001721  59.5188 300.5974 15.08843183 51995,6917.871,95.437,540.926,538.545,0.0
54095.0,STARLINK-5193,PAYLOAD,2023-09-24 13:36:23,15.08842425,0.0001694,53.2176,41.1334,63.1595,296.957,0.00019934,2.886e-05,0.0,0 STARLINK-5193,1 54095U 22136AW  23267.56693580  .00002886  00000-0  19934-3 0  9992,2 54095  53.2176  41.1334 0001694  63.1595 296.9570 15.08842425 51557,6917.873,95.437,540.91,538.566,0.0
54095.0,STARLINK-5193,PAYLOAD,2023-09-24 16:47:09,15.08851019,0.0001195,53.2175,40.5353,86.9683,273.1446,0.0002878,4.297e-05,0.0,0 STARLINK-5193,1 54095U 22136AW  23267.69941006  .00004297  00000-0  28780-3 0  9992,2 54095  53.2175  40.5353 0001195  86.9683 273.1446 15.08851019 51577,6917.847,95.437,540.538,538.885,0.0
54095.0,STARLINK-5193,PAYLOAD,2023-09-25 13:27:10,15.08846394,0.0001692,53.2177,36.6728,76.4651,283.653,0.00024115,3.553e-05,0.0,0 STARLINK-5193,1 54095U 22136AW  23268.56053430  .00003553  00000-0  24115-3 0  9996,2 54095  53.2177  36.6728 0001692  76.4651 283.6530 15.08846394 51707,6917.861,95.437,540.896,538.555,0.0
54095.0,STARLINK-5193,PAYLOAD,2023-09-25 15:02:32,15.08850764,0.0001395,53.2168,36.3735,88.9714,271.1438,0.00027872,4.152e-05,0.0,0 STARLINK-5193,1 54095U 22136AW  23268.62677072  .00004152  00000-0  27872-3 0  9996,2 54095  53.2168  36.3735 0001395  88.9714 271.1438 15.08850764 52188,6917.847,95.437,540.678,538.747,0.0
54095.0,STARLINK-5193,PAYLOAD,2023-09-25 19:48:42,15.08858888,0.0001695,53.2167,35.4781,101.2651,258.8531,0.00054192,8.352e-05,0.0,0 STARLINK-5193,1 54095U 22136AW  23268.82548753  .00008352  00000-0  54192-3 0  9992,2 54095  53.2167  35.4781 0001695 101.2651 258.8531 15.08858888 51742,6917.823,95.436,540.86,538.515,0.0
54095.0,STARLINK-5193,PAYLOAD,2023-09-26 14:53:21,15.08807246,0.0001176,53.2172,31.9132,115.1115,245.0,-0.00048168,-7.939e-05,0.0,0 STARLINK-5193,1 54095U 22136AW  23269.62038964 -.00007939  00000-0 -48168-3 0  9997,2 54095  53.2172  31.9132 0001176 115.1115 245.0000 15.08807246 51866,6917.981,95.44,540.659,539.032,0.0
54095.0,STARLINK-5193,PAYLOAD,2023-09-26 18:04:08,15.0880554,0.0001017,53.2176,31.3164,76.884,283.2266,-0.00038812,-6.453e-05,0.0,0 STARLINK-5193,1 54095U 22136AW  23269.75287624 -.00006453  00000-0 -38812-3 0  9995,2 54095  53.2176  31.3164 0001017  76.8840 283.2266 15.08805540 52359,6917.986,95.44,540.554,539.147,0.0
54095.0,STARLINK-5193,PAYLOAD,2023-09-27 13:08:45,15.08848765,0.0001605,53.2184,27.7492,65.4879,294.628,0.00066046,0.00010241,0.0,0 STARLINK-5193,1 54095U 22136AW  23270.54775100  .00010241  00000-0  66046-3 0  9993,2 54095  53.2184  27.7492 0001605  65.4879 294.6280 15.08848765 52000,6917.854,95.437,540.829,538.608,0.0
54095.0,STARLINK-5193,PAYLOAD,2023-09-27 14:44:08,15.08863247,0.0001301,53.2195,27.4497,63.9286,296.184,0.0010404,0.00016319,0.0,0 STARLINK-5193,1 54095U 22136AW  23270.61398339  .00016319  00000-0  10404-2 0  9994,2 54095  53.2195  27.4497 0001301  63.9286 296.1840 15.08863247 52485,6917.809,95.436,540.574,538.774,0.0
54095.0,STARLINK-5193,PAYLOAD,2023-09-28 12:59:32,15.08854513,0.0001103,53.2188,23.2883,74.1332,285.9781,0.00035432,5.358e-05,0.0,0 STARLINK-5193,1 54095U 22136AW  23271.54134546  .00005358  00000-0  35432-3 0  9995,2 54095  53.2188  23.2883 0001103  74.1332 285.9781 15.08854513 52628,6917.836,95.437,540.464,538.938,0.0
54095.0,STARLINK-5193,PAYLOAD,2023-09-28 14:34:55,15.08854512,0.0001192,53.2191,22.9917,71.5635,288.5487,0.00029357,4.389e-05,0.0,0 STARLINK-5193,1 54095U 22136AW  23271.60758475  .00004389  00000-0  29357-3 0  9997,2 54095  53.2191  22.9917 0001192  71.5635 288.5487 15.08854512 52161,6917.836,95.437,540.526,538.876,0.0
54095.0,STARLINK-5193,PAYLOAD,2023-09-29 12:50:18,15.08850097,0.0001306,53.2201,18.8312,82.5875,277.5265,-7.331e-05,-1.455e-05,0.0,0 STARLINK-5193,1 54095U 22136AW  23272.53493731 -.00001455  00000-0 -73310-4 0  9993,2 54095  53.2201  18.8312 0001306  82.5875 277.5265 15.08850097 52774,6917.85,95.437,540.618,538.811,0.0
54095.0,STARLINK-5193,PAYLOAD,2023-09-29 14:25:41,15.08851852,0.0001283,53.2201,18.5339,80.6675,279.4462,-1.0618e-05,-4.57e-06,0.0,0 STARLINK-5193,1 54095U 22136AW  23272.60117660 -.00000457  00000-0 -10618-4 0  9998,2 54095  53.2201  18.5339 0001283  80.6675 279.4462 15.08851852 52311,6917.844,95.437,540.597,538.822,0.0
54095.0,STARLINK-5193,PAYLOAD,2023-09-29 17:36:27,15.08860427,0.0001199,53.2198,17.9391,69.8124,290.2997,0.00021931,3.206e-05,0.0,0 STARLINK-5193,1 54095U 22136AW  23272.73365342  .00003206  00000-0  21931-3 0  9996,2 54095  53.2198  17.9391 0001199  69.8124 290.2997 15.08860427 52807,6917.818,95.436,540.512,538.854,0.0
